{"type":"FeatureCollection","licence":"Data © OpenStreetMap contributors, ODbL 1.0. http://osm.org/copyright","features":[{"type":"Feature","properties":{"place_id":421990935,"osm_type":"relation","osm_id":21041754,"place_rank":20,"category":"boundary","type":"administrative","importance":0.13338685969329364,"addresstype":"quarter","name":"Maimpis","display_name":"Maimpis, San Fernando, Pampanga, Central Luzon, 2000, Philippines"},"bbox":[120.6492975,15.0610232,120.6761977,15.0808466],"geometry":{"type":"Polygon","coordinates":[[[120.6492975,15.0693414],[120.6495018,15.0690849],[120.6500895,15.068394],[120.6504144,15.0680556],[120.6495833,15.0675868],[120.6496718,15.0674857],[120.6497759,15.0673667],[120.6500241,15.0670831],[120.6502136,15.0668702],[120.6502329,15.0668486],[120.6503144,15.0667474],[120.6505711,15.0664579],[120.6508697,15.0661166],[120.6509254,15.066053],[120.6509946,15.0659739],[120.6510778,15.0658788],[120.6510966,15.0658574],[120.6512397,15.0656925],[120.6513106,15.0656128],[120.6515144,15.065372],[120.6515689,15.0653055],[120.65289,15.0638019],[120.6542844,15.0646376],[120.6550379,15.0634477],[120.6559501,15.0638714],[120.6568236,15.0624205],[120.6588305,15.063387],[120.6597082,15.062353],[120.6599493,15.0619364],[120.6615641,15.0610232],[120.6617508,15.0611568],[120.6619782,15.0615959],[120.6595352,15.0649122],[120.6606604,15.0664502],[120.6631542,15.069235],[120.6633108,15.0694886],[120.6634717,15.0694057],[120.6636219,15.0693539],[120.6637507,15.06924],[120.6639009,15.0691364],[120.6640403,15.0690328],[120.6641476,15.0690121],[120.6642442,15.0688567],[120.6643515,15.0688049],[120.6645017,15.0687531],[120.6646519,15.0687013],[120.6648879,15.0686598],[120.6649845,15.0685873],[120.6651454,15.0685148],[120.66536,15.0684837],[120.6655531,15.0683905],[120.6657784,15.0682558],[120.6659608,15.0682351],[120.6661003,15.0681625],[120.6662934,15.0680589],[120.666508,15.0679657],[120.6667118,15.0679243],[120.6668191,15.0678207],[120.66698,15.0677896],[120.6671303,15.067686],[120.6672644,15.0675966],[120.66736,15.0675665],[120.6674257,15.067595],[120.6674615,15.067708],[120.6675129,15.06774],[120.6675983,15.0677663],[120.6676493,15.067787],[120.667774,15.0677481],[120.6679135,15.0676963],[120.6680623,15.0676575],[120.668183,15.0676627],[120.6682782,15.0676756],[120.6684177,15.0676731],[120.6684606,15.0676342],[120.6685679,15.0675927],[120.6686967,15.0675513],[120.6688469,15.0674891],[120.6689971,15.0674166],[120.669081,15.0673964],[120.6691687,15.0673765],[120.6692975,15.0674063],[120.6694691,15.0674477],[120.6696221,15.0674645],[120.6697628,15.0674387],[120.6699412,15.0673441],[120.6701129,15.0673752],[120.6702873,15.0673169],[120.6703972,15.0672561],[120.6705957,15.0672055],[120.6707566,15.0672301],[120.6709068,15.0672405],[120.6710248,15.067313],[120.6710789,15.0674241],[120.671171,15.0675124],[120.6713574,15.0675617],[120.6714848,15.0676005],[120.6716458,15.067699],[120.6718188,15.0677896],[120.6719355,15.0678219],[120.6720669,15.0678427],[120.672256,15.0678504],[120.6723499,15.0678453],[120.6724303,15.0678621],[120.672602,15.0678725],[120.67272,15.0679243],[120.6728809,15.0679035],[120.6730204,15.0678414],[120.6731411,15.0677274],[120.6732189,15.0676251],[120.6733289,15.0675033],[120.673416,15.0673363],[120.6735246,15.0671499],[120.6736229,15.0670446],[120.6737406,15.0669983],[120.673872,15.0670566],[120.6739619,15.0671499],[120.6741014,15.0671577],[120.674222,15.0671265],[120.6743615,15.0671473],[120.6745224,15.0671783],[120.674737,15.0672094],[120.6749087,15.0673027],[120.6749838,15.067427],[120.6750803,15.0675099],[120.6752041,15.067674],[120.6753154,15.06774],[120.6754066,15.0677349],[120.6755631,15.0678413],[120.6755098,15.0679286],[120.6754696,15.0680295],[120.6754401,15.0681518],[120.6754052,15.0683209],[120.675373,15.0685191],[120.6753302,15.0686996],[120.6753703,15.068918],[120.6754481,15.0691018],[120.6755454,15.0693081],[120.6755665,15.0694564],[120.675573,15.0697252],[120.6757213,15.0700236],[120.6758761,15.0703528],[120.6760236,15.0706123],[120.6761133,15.0708397],[120.6761977,15.0710472],[120.6761972,15.0712593],[120.6761347,15.0713888],[120.6761801,15.0721213],[120.6760339,15.0726583],[120.675875,15.0728925],[120.6751261,15.0734323],[120.6743764,15.0743299],[120.6733032,15.0751222],[120.6727457,15.0761279],[120.6717913,15.0774606],[120.67107,15.0779251],[120.6707722,15.0783934],[120.6706767,15.0789197],[120.67032,15.0794174],[120.6701074,15.0795019],[120.6699142,15.0795253],[120.6695043,15.0795625],[120.6692597,15.079747],[120.6690584,15.0798484],[120.6687581,15.0800392],[120.6683405,15.079784],[120.6677848,15.0793667],[120.6674653,15.0790751],[120.6668963,15.078606],[120.6664236,15.0791131],[120.6660385,15.0795526],[120.665719,15.0799752],[120.6653688,15.080364],[120.6650311,15.0808466],[120.6646817,15.080271],[120.6644454,15.0798358],[120.6644191,15.0795399],[120.664139,15.0791849],[120.6638458,15.0788426],[120.66343,15.0784454],[120.6629048,15.0778918],[120.6624846,15.0774988],[120.6621382,15.0771503],[120.6601102,15.0751573],[120.6599458,15.0748187],[120.6594916,15.0747816],[120.6591553,15.07515],[120.658922,15.0751248],[120.6588154,15.0750932],[120.6577097,15.0733283],[120.6574377,15.0731045],[120.6549274,15.0702894],[120.6546137,15.0707318],[120.6544679,15.0709212],[120.6543494,15.0711105],[120.6543208,15.0711579],[120.6542373,15.0712319],[120.6538973,15.0714767],[120.653639,15.0716522],[120.6534782,15.071759],[120.6533977,15.0718099],[120.6531174,15.0719966],[120.6528288,15.0721845],[120.6517695,15.0712741],[120.6504025,15.0724696],[120.6493447,15.0715222],[120.6503737,15.0703358],[120.6501228,15.0702432],[120.6496317,15.0697078],[120.6492975,15.0693414]]]}}]}